start=new Date('2023-03-18T00:00:00.000Z').valueOf();
sats=[{"RCS_SIZE":"LARGE","APOAPSIS":"548.903","MEAN_ANOMALY":"269.0669","MEAN_ELEMENT_THEORY":"SGP4","MEAN_MOTION_DDOT":"0.0000000000000","REF_FRAME":"TEME","MEAN_MOTION_DOT":"0.00016565","INCLINATION":"53.0490","TLE_LINE2":"2 47395  53.0490 225.8801 0002381  91.0593 269.0669 15.06386789119617","NORAD_CAT_ID":"47395","CENTER_NAME":"EARTH","ECCENTRICITY":"0.00023810","PERIOD":"95.593","BSTAR":"0.00112870000000","LAUNCH_DATE":"2021-01-20","GP_ID":"228354652","CLASSIFICATION_TYPE":"U","MEAN_MOTION":"15.06386789","TIME_SYSTEM":"UTC","OBJECT_TYPE":"PAYLOAD","FILE":"3863544","PERIAPSIS":"545.605","ARG_OF_PERICENTER":"91.0593","RA_OF_ASC_NODE":"225.8801","EPOCH":"2023-03-17T16:20:07.484352","ELEMENT_SET_NO":"999","SEMIMAJOR_AXIS":"6925.389","EPHEMERIS_TYPE":"0","DECAY_DATE":null,"COUNTRY_CODE":"US","OBJECT_NAME":"STARLINK-2117","REV_AT_EPOCH":"11961","OBJECT_ID":"2021-005AY","TLE_LINE1":"1 47395U 21005AY  23076.68064218  .00016565  00000-0  11287-2 0  9993","SITE":"AFETR"},{"EPOCH":"2023-03-17T20:33:34.807968","SEMIMAJOR_AXIS":"6925.354","ELEMENT_SET_NO":"999","PERIAPSIS":"546.065","ARG_OF_PERICENTER":"92.7523","RA_OF_ASC_NODE":"235.0920","REV_AT_EPOCH":"11950","OBJECT_ID":"2021-005AZ","SITE":"AFETR","TLE_LINE1":"1 47396U 21005AZ  23076.85665287  .00008020  00000-0  55675-3 0  9993","OBJECT_NAME":"STARLINK-2118","DECAY_DATE":null,"COUNTRY_CODE":"US","EPHEMERIS_TYPE":"0","REF_FRAME":"TEME","MEAN_MOTION_DOT":"0.00008020","MEAN_ELEMENT_THEORY":"SGP4","MEAN_MOTION_DDOT":"0.0000000000000","NORAD_CAT_ID":"47396","TLE_LINE2":"2 47396  53.0491 235.0920 0001667  92.7523 267.3657 15.06398166119509","INCLINATION":"53.0491","RCS_SIZE":"LARGE","MEAN_ANOMALY":"267.3657","APOAPSIS":"548.374","OBJECT_TYPE":"PAYLOAD","FILE":"3863544","BSTAR":"0.00055675000000","CENTER_NAME":"EARTH","PERIOD":"95.592","ECCENTRICITY":"0.00016670","TIME_SYSTEM":"UTC","CLASSIFICATION_TYPE":"U","MEAN_MOTION":"15.06398166","LAUNCH_DATE":"2021-01-20","GP_ID":"228354902"},{"PERIAPSIS":"546.227","RA_OF_ASC_NODE":"264.8063","ARG_OF_PERICENTER":"76.6739","EPOCH":"2023-03-17T22:05:09.059136","ELEMENT_SET_NO":"999","SEMIMAJOR_AXIS":"6925.430","EPHEMERIS_TYPE":"0","DECAY_DATE":null,"COUNTRY_CODE":"US","OBJECT_NAME":"STARLINK-2119","OBJECT_ID":"2021-005BA","REV_AT_EPOCH":"11909","TLE_LINE1":"1 47397U 21005BA  23076.92024374  .00019468  00000-0  13232-2 0  9998","SITE":"AFETR","RCS_SIZE":"LARGE","APOAPSIS":"548.362","MEAN_ANOMALY":"283.4422","MEAN_MOTION_DDOT":"0.0000000000000","MEAN_ELEMENT_THEORY":"SGP4","MEAN_MOTION_DOT":"0.00019468","REF_FRAME":"TEME","INCLINATION":"53.0526","TLE_LINE2":"2 47397  53.0526 264.8063 0001542  76.6739 283.4422 15.06373561119094","NORAD_CAT_ID":"47397","ECCENTRICITY":"0.00015420","PERIOD":"95.594","CENTER_NAME":"EARTH","BSTAR":"0.00132320000000","GP_ID":"228354150","LAUNCH_DATE":"2021-01-20","MEAN_MOTION":"15.06373561","CLASSIFICATION_TYPE":"U","TIME_SYSTEM":"UTC","OBJECT_TYPE":"PAYLOAD","FILE":"3863544"},{"OBJECT_ID":"2021-005BB","REV_AT_EPOCH":"11949","SITE":"AFETR","TLE_LINE1":"1 47398U 21005BB  23076.82718185  .00022711  00000-0  15388-2 0  9997","OBJECT_NAME":"STARLINK-2120","DECAY_DATE":null,"EPHEMERIS_TYPE":"0","COUNTRY_CODE":"US","EPOCH":"2023-03-17T19:51:08.511840","SEMIMAJOR_AXIS":"6925.361","ELEMENT_SET_NO":"999","PERIAPSIS":"546.405","RA_OF_ASC_NODE":"235.2245","ARG_OF_PERICENTER":"72.1036","OBJECT_TYPE":"PAYLOAD","FILE":"3863544","BSTAR":"0.00153880000000","PERIOD":"95.592","ECCENTRICITY":"0.00011850","CENTER_NAME":"EARTH","CLASSIFICATION_TYPE":"U","TIME_SYSTEM":"UTC","MEAN_MOTION":"15.06395924","GP_ID":"228353901","LAUNCH_DATE":"2021-01-20","MEAN_MOTION_DOT":"0.00022711","REF_FRAME":"TEME","MEAN_MOTION_DDOT":"0.0000000000000","MEAN_ELEMENT_THEORY":"SGP4","TLE_LINE2":"2 47398  53.0509 235.2245 0001185  72.1036 288.0082 15.06395924119498","NORAD_CAT_ID":"47398","INCLINATION":"53.0509","RCS_SIZE":"LARGE","MEAN_ANOMALY":"288.0082","APOAPSIS":"548.047"},{"PERIAPSIS":"546.387","RA_OF_ASC_NODE":"245.3031","ARG_OF_PERICENTER":"102.9788","EPOCH":"2023-03-17T20:42:54.890784","SEMIMAJOR_AXIS":"6925.385","ELEMENT_SET_NO":"999","OBJECT_NAME":"STARLINK-2121","DECAY_DATE":null,"EPHEMERIS_TYPE":"0","COUNTRY_CODE":"US","OBJECT_ID":"2021-005BC","REV_AT_EPOCH":"11935","SITE":"AFETR","TLE_LINE1":"1 47399U 21005BC  23076.86313531  .00004969  00000-0  35238-3 0  9990","RCS_SIZE":"LARGE","MEAN_ANOMALY":"257.1340","APOAPSIS":"548.113","MEAN_MOTION_DOT":"0.00004969","REF_FRAME":"TEME","MEAN_MOTION_DDOT":"0.0000000000000","MEAN_ELEMENT_THEORY":"SGP4","NORAD_CAT_ID":"47399","TLE_LINE2":"2 47399  53.0527 245.3031 0001246 102.9788 257.1340 15.06388014119359","INCLINATION":"53.0527","BSTAR":"0.00035238000000","ECCENTRICITY":"0.00012460","PERIOD":"95.593","CENTER_NAME":"EARTH","MEAN_MOTION":"15.06388014","CLASSIFICATION_TYPE":"U","TIME_SYSTEM":"UTC","LAUNCH_DATE":"2021-01-20","GP_ID":"228355152","OBJECT_TYPE":"PAYLOAD","FILE":"3863544"},{"APOAPSIS":"548.114","MEAN_ANOMALY":"263.1750","RCS_SIZE":"LARGE","INCLINATION":"53.0515","TLE_LINE2":"2 47400  53.0515 225.2457 0001206  96.9376 263.1750 15.06378814119639","NORAD_CAT_ID":"47400","MEAN_ELEMENT_THEORY":"SGP4","MEAN_MOTION_DDOT":"0.0000000000000","MEAN_MOTION_DOT":"0.00026478","REF_FRAME":"TEME","GP_ID":"228355402","LAUNCH_DATE":"2021-01-20","CLASSIFICATION_TYPE":"U","MEAN_MOTION":"15.06378814","TIME_SYSTEM":"UTC","ECCENTRICITY":"0.00012060","PERIOD":"95.593","CENTER_NAME":"EARTH","BSTAR":"0.00179080000000","FILE":"3863544","OBJECT_TYPE":"PAYLOAD","RA_OF_ASC_NODE":"225.2457","ARG_OF_PERICENTER":"96.9376","PERIAPSIS":"546.443","ELEMENT_SET_NO":"999","SEMIMAJOR_AXIS":"6925.413","EPOCH":"2023-03-17T19:47:08.847744","DECAY_DATE":null,"COUNTRY_CODE":"US","EPHEMERIS_TYPE":"0","OBJECT_NAME":"STARLINK-2122","TLE_LINE1":"1 47400U 21005BD  23076.82440796  .00026478  00000-0  17908-2 0  9995","SITE":"AFETR","OBJECT_ID":"2021-005BD","REV_AT_EPOCH":"11963"},{"OBJECT_TYPE":"PAYLOAD","FILE":"3863544","BSTAR":"-0.00029629000000","CENTER_NAME":"EARTH","ECCENTRICITY":"0.00005440","PERIOD":"95.594","MEAN_MOTION":"15.06365007","CLASSIFICATION_TYPE":"U","TIME_SYSTEM":"UTC","LAUNCH_DATE":"2021-01-20","GP_ID":"228353651","REF_FRAME":"TEME","MEAN_MOTION_DOT":"-0.00004687","MEAN_MOTION_DDOT":"0.0000000000000","MEAN_ELEMENT_THEORY":"SGP4","TLE_LINE2":"2 47401  53.0552 235.1564 0000544  90.8329 269.2722 15.06365007119507","NORAD_CAT_ID":"47401","INCLINATION":"53.0552","RCS_SIZE":"LARGE","MEAN_ANOMALY":"269.2722","APOAPSIS":"547.698","REV_AT_EPOCH":"11950","OBJECT_ID":"2021-005BE","SITE":"AFETR","TLE_LINE1":"1 47401U 21005BE  23076.84192862 -.00004687  00000-0 -29629-3 0  9990","OBJECT_NAME":"STARLINK-2123","EPHEMERIS_TYPE":"0","DECAY_DATE":null,"COUNTRY_CODE":"US","EPOCH":"2023-03-17T20:12:22.632768","SEMIMAJOR_AXIS":"6925.456","ELEMENT_SET_NO":"999","PERIAPSIS":"546.944","ARG_OF_PERICENTER":"90.8329","RA_OF_ASC_NODE":"235.1564"},{"BSTAR":"-0.00008197800000","PERIOD":"95.593","ECCENTRICITY":"0.00011440","CENTER_NAME":"EARTH","CLASSIFICATION_TYPE":"U","MEAN_MOTION":"15.06382902","TIME_SYSTEM":"UTC","GP_ID":"228354401","LAUNCH_DATE":"2021-01-20","OBJECT_TYPE":"PAYLOAD","FILE":"3863544","RCS_SIZE":"LARGE","MEAN_ANOMALY":"262.6750","APOAPSIS":"548.058","MEAN_MOTION_DOT":"-0.00001502","REF_FRAME":"TEME","MEAN_ELEMENT_THEORY":"SGP4","MEAN_MOTION_DDOT":"0.0000000000000","TLE_LINE2":"2 47402  53.0488 235.6693 0001144  97.4369 262.6750 15.06382902119486","NORAD_CAT_ID":"47402","INCLINATION":"53.0488","OBJECT_NAME":"STARLINK-2124","EPHEMERIS_TYPE":"0","DECAY_DATE":null,"COUNTRY_CODE":"US","OBJECT_ID":"2021-005BF","REV_AT_EPOCH":"11948","SITE":"AFETR","TLE_LINE1":"1 47402U 21005BF  23076.72765756 -.00001502  00000-0 -81978-4 0  9995","PERIAPSIS":"546.474","RA_OF_ASC_NODE":"235.6693","ARG_OF_PERICENTER":"97.4369","EPOCH":"2023-03-17T17:27:49.613184","SEMIMAJOR_AXIS":"6925.401","ELEMENT_SET_NO":"999"},{"CLASSIFICATION_TYPE":"U","MEAN_MOTION":"15.06394074","TIME_SYSTEM":"UTC","GP_ID":"228354653","LAUNCH_DATE":"2021-01-20","BSTAR":"0.00056908000000","PERIOD":"95.593","ECCENTRICITY":"0.00013670","CENTER_NAME":"EARTH","FILE":"3863544","OBJECT_TYPE":"PAYLOAD","MEAN_ANOMALY":"281.0379","APOAPSIS":"548.178","RCS_SIZE":"LARGE","NORAD_CAT_ID":"47403","TLE_LINE2":"2 47403  53.0516 235.0392 0001367  79.0764 281.0379 15.06394074119509","INCLINATION":"53.0516","MEAN_MOTION_DOT":"0.00008204","REF_FRAME":"TEME","MEAN_ELEMENT_THEORY":"SGP4","MEAN_MOTION_DDOT":"0.0000000000000","OBJECT_NAME":"STARLINK-2127","DECAY_DATE":null,"COUNTRY_CODE":"US","EPHEMERIS_TYPE":"0","SITE":"AFETR","TLE_LINE1":"1 47403U 21005BG  23076.86775028  .00008204  00000-0  56908-3 0  9992","OBJECT_ID":"2021-005BG","REV_AT_EPOCH":"11950","RA_OF_ASC_NODE":"235.0392","ARG_OF_PERICENTER":"79.0764","PERIAPSIS":"546.285","SEMIMAJOR_AXIS":"6925.367","ELEMENT_SET_NO":"999","EPOCH":"2023-03-17T20:49:33.624192"},{"TLE_LINE1":"1 47404U 21005BH  23076.86402995  .00021659  00000-0  14689-2 0  9991","SITE":"AFETR","OBJECT_ID":"2021-005BH","REV_AT_EPOCH":"11950","COUNTRY_CODE":"US","DECAY_DATE":null,"EPHEMERIS_TYPE":"0","OBJECT_NAME":"STARLINK-2128","ELEMENT_SET_NO":"999","SEMIMAJOR_AXIS":"6925.384","EPOCH":"2023-03-17T20:44:12.187680","RA_OF_ASC_NODE":"235.0541","ARG_OF_PERICENTER":"107.6056","PERIAPSIS":"546.548","FILE":"3863544","OBJECT_TYPE":"PAYLOAD","LAUNCH_DATE":"2021-01-20","GP_ID":"228354903","CLASSIFICATION_TYPE":"U","TIME_SYSTEM":"UTC","MEAN_MOTION":"15.06388576","PERIOD":"95.593","ECCENTRICITY":"0.00010110","CENTER_NAME":"EARTH","BSTAR":"0.00146890000000","INCLINATION":"53.0523","NORAD_CAT_ID":"47404","TLE_LINE2":"2 47404  53.0523 235.0541 0001011 107.6056 252.5044 15.06388576119504","MEAN_MOTION_DDOT":"0.0000000000000","MEAN_ELEMENT_THEORY":"SGP4","MEAN_MOTION_DOT":"0.00021659","REF_FRAME":"TEME","APOAPSIS":"547.949","MEAN_ANOMALY":"252.5044","RCS_SIZE":"LARGE"}];
